NORAD_CAT_ID,OBJECT_NAME,OBJECT_TYPE,EPOCH,MEAN_MOTION,ECCENTRICITY,INCLINATION,RA_OF_ASC_NODE,ARG_OF_PERICENTER,MEAN_ANOMALY,BSTAR,MEAN_MOTION_DOT,MEAN_MOTION_DDOT,TLE_LINE0,TLE_LINE1,TLE_LINE2,SEMIMAJOR_AXIS,PERIOD,APOGEE,PERIGEE,DECAYED
53005.0,STARLINK-4288,PAYLOAD,2023-12-10 12:59:57,15.08841113,0.0001309,53.2155,175.908,91.6834,268.4308,9.8583e-05,1.281e-05,0.0,0 STARLINK-4288,1 53005U 22076V   23344.54163454  .00001281  00000-0  98583-4 0  9997,2 53005  53.2155 175.9080 0001309  91.6834 268.4308 15.08841113 79032,6917.877,95.437,540.648,538.836,0.0
53005.0,STARLINK-4288,PAYLOAD,2023-12-10 20:56:52,15.0884365,0.0001324,53.2155,174.4211,91.3605,268.7539,0.00010376,1.364e-05,0.0,0 STARLINK-4288,1 53005U 22076V   23344.87283290  .00001364  00000-0  10376-3 0  9999,2 53005  53.2155 174.4211 0001324  91.3605 268.7539 15.08843650 79084,6917.869,95.437,540.65,538.818,0.0
53005.0,STARLINK-4288,PAYLOAD,2023-12-11 14:26:08,15.08823132,0.0001254,53.2155,171.1503,97.3045,262.809,0.00055167,8.499e-05,0.0,0 STARLINK-4288,1 53005U 22076V   23345.60148189  .00008499  00000-0  55167-3 0  9991,2 53005  53.2155 171.1503 0001254  97.3045 262.8090 15.08823132 79190,6917.932,95.439,540.664,538.929,0.0
53005.0,STARLINK-4288,PAYLOAD,2023-12-11 19:12:17,15.08827227,0.0001218,53.2155,170.2581,95.5016,264.6115,0.00053036,8.16e-05,0.0,0 STARLINK-4288,1 53005U 22076V   23345.80020240  .00008160  00000-0  53036-3 0  9998,2 53005  53.2155 170.2581 0001218  95.5016 264.6115 15.08827227 79696,6917.919,95.438,540.627,538.942,0.0
53005.0,STARLINK-4288,PAYLOAD,2023-12-11 20:47:40,15.08820304,0.0001298,53.2155,169.9607,96.5891,263.5248,0.00063218,9.782e-05,0.0,0 STARLINK-4288,1 53005U 22076V   23345.86644519  .00009782  00000-0  63218-3 0  9999,2 53005  53.2155 169.9607 0001298  96.5891 263.5248 15.08820304 79234,6917.941,95.439,540.704,538.908,0.0
53005.0,STARLINK-4288,PAYLOAD,2023-12-12 19:03:02,15.08857627,0.0001357,53.2157,165.7975,92.0449,268.0698,0.00013931,1.931e-05,0.0,0 STARLINK-4288,1 53005U 22076V   23346.79378107  .00001931  00000-0  13931-3 0  9994,2 53005  53.2157 165.7975 0001357  92.0449 268.0698 15.08857627 79848,6917.827,95.436,540.63,538.753,0.0
53005.0,STARLINK-4288,PAYLOAD,2023-12-13 18:53:50,15.08844806,0.0001366,53.2158,161.337,91.164,268.9508,-2.2635e-05,-6.48e-06,0.0,0 STARLINK-4288,1 53005U 22076V   23347.78738525 -.00000648  00000-0 -22635-4 0  9996,2 53005  53.2158 161.3370 0001366  91.1640 268.9508 15.08844806 79993,6917.866,95.437,540.676,538.786,0.0
53005.0,STARLINK-4288,PAYLOAD,2023-12-14 18:44:37,15.08816203,0.0001538,53.2159,156.8719,100.4432,259.6733,0.00033089,4.979e-05,0.0,0 STARLINK-4288,1 53005U 22076V   23348.78098886  .00004979  00000-0  33089-3 0  9999,2 53005  53.2159 156.8719 0001538 100.4432 259.6733 15.08816203 80140,6917.953,95.439,540.882,538.754,0.0
53005.0,STARLINK-4288,PAYLOAD,2023-12-15 18:35:24,15.08833726,0.0001421,53.2164,152.4135,79.3655,280.7497,3.2795e-05,2.34e-06,0.0,0 STARLINK-4288,1 53005U 22076V   23349.77459043  .00000234  00000-0  32795-4 0  9999,2 53005  53.2164 152.4135 0001421  79.3655 280.7497 15.08833726 80299,6917.9,95.438,540.748,538.782,0.0
53005.0,STARLINK-4288,PAYLOAD,2023-12-16 18:26:11,15.08843781,0.0001427,53.2165,147.9558,75.7064,284.4086,0.0001427,1.984e-05,0.0,0 STARLINK-4288,1 53005U 22076V   23350.76818407  .00001984  00000-0  14270-3 0  9993,2 53005  53.2165 147.9558 0001427  75.7064 284.4086 15.08843781 80442,6917.869,95.437,540.721,538.747,0.0
53005.0,STARLINK-4288,PAYLOAD,2023-12-17 15:06:12,15.08842496,0.0001365,53.2164,144.0904,82.95,277.1648,0.00010091,1.319e-05,0.0,0 STARLINK-4288,1 53005U 22076V   23351.62930606  .00001319  00000-0  10091-3 0  9994,2 53005  53.2164 144.0904 0001365  82.9500 277.1648 15.08842496 80108,6917.873,95.437,540.682,538.793,0.0
53005.0,STARLINK-4288,PAYLOAD,2023-12-17 16:41:35,15.08845369,0.0001682,53.2171,143.792,65.1653,294.9514,0.00011051,1.471e-05,0.0,0 STARLINK-4288,1 53005U 22076V   23351.69554535  .00001471  00000-0  11051-3 0  9990,2 53005  53.2171 143.7920 0001682  65.1653 294.9514 15.08845369 80116,6917.864,95.437,540.893,538.565,0.0
53005.0,STARLINK-4288,PAYLOAD,2023-12-18 13:21:35,15.08828901,0.0001448,53.2158,139.93,101.9587,258.1568,0.00032513,4.889e-05,0.0,0 STARLINK-4288,1 53005U 22076V   23352.55666360  .00004889  00000-0  32513-3 0  9998,2 53005  53.2158 139.9300 0001448 101.9587 258.1568 15.08828901 80243,6917.914,95.438,540.781,538.778,0.0
53005.0,STARLINK-4288,PAYLOAD,2023-12-18 16:32:21,15.08852155,0.0001317,53.2152,139.3353,76.6014,283.5125,4.1633e-05,3.75e-06,0.0,0 STARLINK-4288,1 53005U 22076V   23352.68913919  .00000375  00000-0  41633-4 0  9997,2 53005  53.2152 139.3353 0001317  76.6014 283.5125 15.08852155 80268,6917.843,95.437,540.619,538.797,0.0
53005.0,STARLINK-4288,PAYLOAD,2023-12-19 14:47:45,15.08844048,0.000171,53.216,135.1688,124.7119,235.4034,-5.5215e-05,-1.167e-05,0.0,0 STARLINK-4288,1 53005U 22076V   23353.61649940 -.00001167  00000-0 -55215-4 0  9994,2 53005  53.2160 135.1688 0001710 124.7119 235.4034 15.08844048 80403,6917.868,95.437,540.916,538.55,0.0
53005.0,STARLINK-4288,PAYLOAD,2023-12-19 16:23:09,15.08839955,0.0001547,53.216,134.8737,105.9153,254.201,1.2126e-05,-9.5e-07,0.0,0 STARLINK-4288,1 53005U 22076V   23353.68274401 -.00000095  00000-0  12126-4 0  9999,2 53005  53.2160 134.8737 0001547 105.9153 254.2010 15.08839955 80887,6917.881,95.438,540.816,538.675,0.0
53005.0,STARLINK-4288,PAYLOAD,2023-12-20 13:03:10,15.08833849,0.0001486,53.2172,131.0092,110.8165,249.2986,-5.6219e-05,-1.182e-05,0.0,0 STARLINK-4288,1 53005U 22076V   23354.54387331 -.00001182  00000-0 -56219-4 0  9992,2 53005  53.2172 131.0092 0001486 110.8165 249.2986 15.08833849 80548,6917.899,95.438,540.792,538.736,0.0
53005.0,STARLINK-4288,PAYLOAD,2023-12-20 16:13:56,15.0883622,0.0001551,53.217,130.4126,103.2483,256.8682,1.0158e-05,-1.26e-06,0.0,0 STARLINK-4288,1 53005U 22076V   23354.67635035 -.00000126  00000-0  10158-4 0  9991,2 53005  53.2170 130.4126 0001551 103.2483 256.8682 15.08836220 81037,6917.892,95.438,540.83,538.684,0.0
53005.0,STARLINK-4288,PAYLOAD,2023-12-21 14:29:20,15.08839161,0.0001428,53.2169,126.2518,102.5794,257.5358,0.00010705,1.416e-05,0.0,0 STARLINK-4288,1 53005U 22076V   23355.60371026  .00001416  00000-0  10705-3 0  9991,2 53005  53.2169 126.2518 0001428 102.5794 257.5358 15.08839161 80701,6917.883,95.438,540.736,538.76,0.0
53005.0,STARLINK-4288,PAYLOAD,2023-12-21 16:04:43,15.08841847,0.0001443,53.2162,125.9534,100.1685,259.947,0.00013773,1.905e-05,0.0,0 STARLINK-4288,1 53005U 22076V   23355.66994834  .00001905  00000-0  13773-3 0  9996,2 53005  53.2162 125.9534 0001443 100.1685 259.9470 15.08841847 80714,6917.875,95.437,540.738,538.741,0.0
53005.0,STARLINK-4288,PAYLOAD,2023-12-22 14:20:07,15.08843754,0.0001526,53.2163,121.7887,112.4006,247.7148,7.3964e-05,8.89e-06,0.0,0 STARLINK-4288,1 53005U 22076V   23356.59730929  .00000889  00000-0  73964-4 0  9991,2 53005  53.2163 121.7887 0001526 112.4006 247.7148 15.08843754 80856,6917.869,95.437,540.79,538.678,0.0
53005.0,STARLINK-4288,PAYLOAD,2023-12-22 15:55:30,15.08845666,0.0001494,53.2164,121.4931,81.1793,278.9369,0.00016038,2.266e-05,0.0,0 STARLINK-4288,1 53005U 22076V   23356.66355067  .00002266  00000-0  16038-3 0  9994,2 53005  53.2164 121.4931 0001494  81.1793 278.9369 15.08845666 80869,6917.863,95.437,540.762,538.695,0.0
53005.0,STARLINK-4288,PAYLOAD,2023-12-23 07:49:22,15.08841454,0.0001373,53.2162,118.5159,91.591,268.5239,-3.4619e-05,-8.39e-06,0.0,0 STARLINK-4288,1 53005U 22076V   23357.32595065 -.00000839  00000-0 -34619-4 0  9994,2 53005  53.2162 118.5159 0001373  91.5910 268.5239 15.08841454 81434,6917.876,95.437,540.691,538.791,0.0
53005.0,STARLINK-4288,PAYLOAD,2023-12-23 14:10:54,15.08843222,0.0001376,53.216,117.327,78.4948,281.6199,-2.3371e-05,-6.6e-06,0.0,0 STARLINK-4288,1 53005U 22076V   23357.59091008 -.00000660  00000-0 -23371-4 0  9996,2 53005  53.2160 117.3270 0001376  78.4948 281.6199 15.08843222 81000,6917.871,95.437,540.687,538.784,0.0
53005.0,STARLINK-4288,PAYLOAD,2023-12-23 15:46:17,15.08843919,0.0001428,53.2159,117.0299,68.295,291.8194,-1.9259e-06,-3.19e-06,0.0,0 STARLINK-4288,1 53005U 22076V   23357.65715027 -.00000319  00000-0 -19259-5 0  9999,2 53005  53.2159 117.0299 0001428  68.2950 291.8194 15.08843919 81016,6917.868,95.437,540.721,538.746,0.0
53005.0,STARLINK-4288,PAYLOAD,2023-12-24 12:26:18,15.08843089,0.0001405,53.2159,113.1678,68.9582,291.1561,1.5499e-05,-4.1e-07,0.0,0 STARLINK-4288,1 53005U 22076V   23358.51827238 -.00000041  00000-0  15499-4 0  9995,2 53005  53.2159 113.1678 0001405  68.9582 291.1561 15.08843089 81612,6917.871,95.437,540.708,538.764,0.0
53005.0,STARLINK-4288,PAYLOAD,2023-12-24 14:01:41,15.08844704,0.0001766,53.2155,112.8702,52.3579,307.7573,7.2276e-05,8.63e-06,0.0,0 STARLINK-4288,1 53005U 22076V   23358.58451302  .00000863  00000-0  72276-4 0  9994,2 53005  53.2155 112.8702 0001766  52.3579 307.7573 15.08844704 81156,6917.866,95.437,540.953,538.509,0.0
53005.0,STARLINK-4288,PAYLOAD,2023-12-24 15:37:04,15.08856263,0.0001155,53.2156,112.5675,85.5706,274.5418,0.0002093,3.046e-05,0.0,0 STARLINK-4288,1 53005U 22076V   23358.65074468  .00003046  00000-0  20930-3 0  9991,2 53005  53.2156 112.5675 0001155  85.5706 274.5418 15.08856263 81630,6917.831,95.437,540.495,538.897,0.0
53005.0,STARLINK-4288,PAYLOAD,2023-12-25 12:17:06,15.08840843,0.000205,53.2163,108.7028,54.036,306.0822,8.0717e-05,9.97e-06,0.0,0 STARLINK-4288,1 53005U 22076V   23359.51187583  .00000997  00000-0  80717-4 0  9992,2 53005  53.2163 108.7028 0002050  54.0360 306.0822 15.08840843 81760,6917.878,95.438,541.161,538.325,0.0
53005.0,STARLINK-4288,PAYLOAD,2023-12-25 13:52:29,15.08841075,0.0002102,53.2161,108.4087,49.1116,311.0058,0.00014125,1.961e-05,0.0,0 STARLINK-4288,1 53005U 22076V   23359.57811665  .00001961  00000-0  14125-3 0  9994,2 53005  53.2161 108.4087 0002102  49.1116 311.0058 15.08841075 81307,6917.877,95.437,541.196,538.288,0.0
